NORAD_CAT_ID,OBJECT_NAME,OBJECT_TYPE,EPOCH,MEAN_MOTION,ECCENTRICITY,INCLINATION,RA_OF_ASC_NODE,ARG_OF_PERICENTER,MEAN_ANOMALY,BSTAR,MEAN_MOTION_DOT,MEAN_MOTION_DDOT,TLE_LINE0,TLE_LINE1,TLE_LINE2,SEMIMAJOR_AXIS,PERIOD,APOGEE,PERIGEE,DECAYED
53735.0,STARLINK-4618,PAYLOAD,2023-02-08 18:50:09,15.0884224,9.83e-05,53.2167,273.8268,88.3381,271.7723,0.00084206,0.0001314,0.0,0 STARLINK-4618,1 53735U 22107AM  23039.78482701  .00013140  00000-0  84206-3 0  9991,2 53735  53.2167 273.8268 0000983  88.3381 271.7723 15.08842240 23992,6917.874,95.437,540.419,539.059,0.0
53735.0,STARLINK-4618,PAYLOAD,2023-02-08 22:00:55,15.08846452,0.0001014,53.2169,273.2322,84.9923,275.1185,0.0010478,0.0001643,0.0,0 STARLINK-4618,1 53735U 22107AM  23039.91730707  .00016430  00000-0  10478-2 0  9992,2 53735  53.2169 273.2322 0001014  84.9923 275.1185 15.08846452 24641,6917.861,95.437,540.427,539.024,0.0
53735.0,STARLINK-4618,PAYLOAD,2023-02-09 01:11:41,15.0884892,0.0001052,53.2169,272.636,92.8675,267.2437,0.00091962,0.00014382,0.0,0 STARLINK-4618,1 53735U 22107AM  23040.04978612  .00014382  00000-0  91962-3 0  9999,2 53735  53.2169 272.6360 0001052  92.8675 267.2437 15.08848920 24666,6917.853,95.437,540.446,538.99,0.0
53735.0,STARLINK-4618,PAYLOAD,2023-02-09 20:16:19,15.0883856,0.0001176,53.2174,269.0651,100.5152,259.5973,0.00014436,2.01e-05,0.0,0 STARLINK-4618,1 53735U 22107AM  23040.84466893  .00002010  00000-0  14436-3 0  9996,2 53735  53.2174 269.0651 0001176 100.5152 259.5973 15.08838560 24151,6917.885,95.438,540.563,538.936,0.0
53735.0,STARLINK-4618,PAYLOAD,2023-02-10 01:02:28,15.08835694,0.0001551,53.2178,268.1719,115.1913,244.924,0.00041151,6.266e-05,0.0,0 STARLINK-4618,1 53735U 22107AM  23041.04339042  .00006266  00000-0  41151-3 0  9995,2 53735  53.2178 268.1719 0001551 115.1913 244.9240 15.08835694 24817,6917.894,95.438,540.832,538.686,0.0
53735.0,STARLINK-4618,PAYLOAD,2023-02-10 21:42:28,15.08852419,0.0001031,53.2174,264.3092,91.5857,268.5253,0.00023466,3.45e-05,0.0,0 STARLINK-4618,1 53735U 22107AM  23041.90450152  .00003450  00000-0  23466-3 0  9997,2 53735  53.2174 264.3092 0001031  91.5857 268.5253 15.08852419 24946,6917.842,95.437,540.421,538.994,0.0
53735.0,STARLINK-4618,PAYLOAD,2023-02-11 23:08:39,15.08843772,0.0001355,53.2173,259.55,94.7887,265.326,6.6817e-05,7.76e-06,0.0,0 STARLINK-4618,1 53735U 22107AM  23042.96434357  .00000776  00000-0  66817-4 0  9999,2 53735  53.2173 259.5500 0001355  94.7887 265.3260 15.08843772 24475,6917.869,95.437,540.671,538.796,0.0
53735.0,STARLINK-4618,PAYLOAD,2023-02-12 13:27:08,15.08836265,0.000163,53.2166,256.8796,75.1519,284.9654,-5.0935e-05,-1.098e-05,0.0,0 STARLINK-4618,1 53735U 22107AM  23043.56050946 -.00001098  00000-0 -50935-4 0  9998,2 53735  53.2166 256.8796 0001630  75.1519 284.9654 15.08836265 25198,6917.892,95.438,540.884,538.629,0.0
53735.0,STARLINK-4618,PAYLOAD,2023-02-12 15:02:31,15.08823048,8.77e-05,53.2162,256.5805,93.9103,266.199,-0.00048684,-8.024e-05,0.0,0 STARLINK-4618,1 53735U 22107AM  23043.62674785 -.00008024  00000-0 -48684-3 0  9991,2 53735  53.2162 256.5805 0000877  93.9103 266.1990 15.08823048 24572,6917.932,95.439,540.404,539.191,0.0
53735.0,STARLINK-4618,PAYLOAD,2023-02-13 06:56:22,15.088345,9.57e-05,53.2162,253.6069,83.1686,276.9415,6.0331e-08,-2.87e-06,0.0,0 STARLINK-4618,1 53735U 22107AM  23044.28915310 -.00000287  00000-0  60331-7 0  9995,2 53735  53.2162 253.6069 0000957  83.1686 276.9415 15.08834500 24675,6917.897,95.438,540.424,539.1,0.0
53735.0,STARLINK-4618,PAYLOAD,2023-02-13 14:53:18,15.08836346,0.0001012,53.2168,252.1203,80.0666,280.044,0.00027458,4.084e-05,0.0,0 STARLINK-4618,1 53735U 22107AM  23044.62035600  .00004084  00000-0  27458-3 0  9995,2 53735  53.2168 252.1203 0001012  80.0666 280.0440 15.08836346 25352,6917.892,95.438,540.457,539.056,0.0
53735.0,STARLINK-4618,PAYLOAD,2023-02-14 00:25:37,15.08850392,0.0001029,53.2161,250.3357,73.8937,286.2168,0.00088283,0.00013794,0.0,0 STARLINK-4618,1 53735U 22107AM  23045.01779525  .00013794  00000-0  88283-3 0  9991,2 53735  53.2161 250.3357 0001029  73.8937 286.2168 15.08850392 24782,6917.849,95.437,540.425,539.002,0.0
53735.0,STARLINK-4618,PAYLOAD,2023-02-14 06:47:10,15.08840003,0.0001316,53.2159,249.1458,82.3768,277.7373,0.00020289,2.943e-05,0.0,0 STARLINK-4618,1 53735U 22107AM  23045.28275630  .00002943  00000-0  20289-3 0  9994,2 53735  53.2159 249.1458 0001316  82.3768 277.7373 15.08840003 24829,6917.88,95.438,540.656,538.835,0.0
53735.0,STARLINK-4618,PAYLOAD,2023-02-14 13:08:42,15.0884366,0.0001046,53.2152,247.9584,69.3846,290.7258,0.00034249,5.168e-05,0.0,0 STARLINK-4618,1 53735U 22107AM  23045.54771666  .00005168  00000-0  34249-3 0  9996,2 53735  53.2152 247.9584 0001046  69.3846 290.7258 15.08843660 25493,6917.869,95.437,540.458,539.011,0.0
53735.0,STARLINK-4618,PAYLOAD,2023-02-14 19:30:15,15.08848869,0.0001122,53.2167,246.7679,74.8333,285.2784,0.00046021,7.046e-05,0.0,0 STARLINK-4618,1 53735U 22107AM  23045.81267625  .00007046  00000-0  46021-3 0  9999,2 53735  53.2167 246.7679 0001122  74.8333 285.2784 15.08848869 25532,6917.853,95.437,540.494,538.942,0.0
53735.0,STARLINK-4618,PAYLOAD,2023-02-15 12:59:29,15.08848907,0.0001093,53.2157,243.4964,74.949,285.1623,0.00038681,5.875e-05,0.0,0 STARLINK-4618,1 53735U 22107AM  23046.54131532  .00005875  00000-0  38681-3 0  9998,2 53735  53.2157 243.4964 0001093  74.9490 285.1623 15.08848907 25011,6917.853,95.437,540.474,538.962,0.0
53735.0,STARLINK-4618,PAYLOAD,2023-02-15 20:56:25,15.08856455,9.5e-05,53.2162,242.0095,73.0884,287.0212,0.00047028,7.208e-05,0.0,0 STARLINK-4618,1 53735U 22107AM  23046.87251181  .00007208  00000-0  47028-3 0  9994,2 53735  53.2162 242.0095 0000950  73.0884 287.0212 15.08856455 25691,6917.83,95.437,540.352,539.038,0.0
53735.0,STARLINK-4618,PAYLOAD,2023-02-16 06:28:44,15.08844487,0.0001561,53.2183,240.2281,66.1316,293.984,0.00018679,2.686e-05,0.0,0 STARLINK-4618,1 53735U 22107AM  23047.26995586  .00002686  00000-0  18679-3 0  9997,2 53735  53.2183 240.2281 0001561  66.1316 293.9840 15.08844487 25126,6917.867,95.437,540.812,538.652,0.0
53735.0,STARLINK-4618,PAYLOAD,2023-02-16 12:50:16,15.08844042,0.0001193,53.2169,239.0371,82.1249,277.9878,0.00014475,2.017e-05,0.0,0 STARLINK-4618,1 53735U 22107AM  23047.53491472  .00002017  00000-0  14475-3 0  9990,2 53735  53.2169 239.0371 0001193  82.1249 277.9878 15.08844042 25793,6917.868,95.437,540.558,538.908,0.0
53735.0,STARLINK-4618,PAYLOAD,2023-02-16 19:11:49,15.08848064,0.0001149,53.2172,237.8475,84.8198,275.2925,0.00021815,3.186e-05,0.0,0 STARLINK-4618,1 53735U 22107AM  23047.79987316  .00003186  00000-0  21815-3 0  9999,2 53735  53.2172 237.8475 0001149  84.8198 275.2925 15.08848064 25838,6917.856,95.437,540.516,538.926,0.0
53735.0,STARLINK-4618,PAYLOAD,2023-02-17 12:41:04,15.08820307,0.0001485,53.2169,234.5776,83.1039,277.0122,-0.000215,-3.706e-05,0.0,0 STARLINK-4618,1 53735U 22107AM  23048.52852867 -.00003706  00000-0 -21500-3 0  9994,2 53735  53.2169 234.5776 0001485  83.1039 277.0122 15.08820307 25313,6917.941,95.439,540.833,538.778,0.0
53735.0,STARLINK-4618,PAYLOAD,2023-02-17 20:38:00,15.08819034,0.0001036,53.2164,233.0888,89.0584,271.0527,-9.0439e-05,-1.726e-05,0.0,0 STARLINK-4618,1 53735U 22107AM  23048.85973347 -.00001726  00000-0 -90439-4 0  9995,2 53735  53.2164 233.0888 0001036  89.0584 271.0527 15.08819034 25990,6917.944,95.439,540.526,539.093,0.0
53735.0,STARLINK-4618,PAYLOAD,2023-02-17 23:48:47,15.08822472,9.34e-05,53.2162,232.4936,84.5753,275.5346,6.7105e-05,7.8e-06,0.0,0 STARLINK-4618,1 53735U 22107AM  23048.99221413  .00000780  00000-0  67105-4 0  9991,2 53735  53.2162 232.4936 0000934  84.5753 275.5346 15.08822472 26011,6917.934,95.439,540.445,539.153,0.0
53735.0,STARLINK-4618,PAYLOAD,2023-02-18 20:28:48,15.08849855,9.94e-05,53.2163,228.628,86.7455,273.365,0.00096783,0.00015153,0.0,0 STARLINK-4618,1 53735U 22107AM  23049.85333771  .00015153  00000-0  96783-3 0  9991,2 53735  53.2163 228.6280 0000994  86.7455 273.3650 15.08849855 25512,6917.85,95.437,540.403,539.028,0.0
53735.0,STARLINK-4618,PAYLOAD,2023-02-19 12:22:38,15.08869493,0.000102,53.2163,225.6544,87.194,272.9169,0.00085035,0.00013282,0.0,0 STARLINK-4618,1 53735U 22107AM  23050.51572771  .00013282  00000-0  85035-3 0  9990,2 53735  53.2163 225.6544 0001020  87.1940 272.9169 15.08869493 26248,6917.79,95.436,540.361,538.95,0.0
53735.0,STARLINK-4618,PAYLOAD,2023-02-19 21:54:56,15.08883288,0.0001026,53.2163,223.8702,87.2506,272.8604,0.00094609,0.00014819,0.0,0 STARLINK-4618,1 53735U 22107AM  23050.91315732  .00014819  00000-0  94609-3 0  9990,2 53735  53.2163 223.8702 0001026  87.2506 272.8604 15.08883288 25676,6917.748,95.435,540.323,538.903,0.0
53735.0,STARLINK-4618,PAYLOAD,2023-02-20 23:21:06,15.08848384,9.15e-05,53.2156,219.1112,123.1248,236.9832,0.00034782,5.253e-05,0.0,0 STARLINK-4618,1 53735U 22107AM  23051.97299640  .00005253  00000-0  34782-3 0  9994,2 53735  53.2156 219.1112 0000915 123.1248 236.9832 15.08848384 25830,6917.855,95.437,540.353,539.087,0.0
53735.0,STARLINK-4618,PAYLOAD,2023-02-21 10:28:48,15.08844133,8.72e-05,53.2148,217.0297,113.5472,246.5611,0.00039698,6.037e-05,0.0,0 STARLINK-4618,1 53735U 22107AM  23052.43667806  .00006037  00000-0  39698-3 0  9991,2 53735  53.2148 217.0297 0000872 113.5472 246.5611 15.08844133 26534,6917.868,95.437,540.336,539.13,0.0
53735.0,STARLINK-4618,PAYLOAD,2023-02-21 18:25:44,15.08854807,9.91e-05,53.2159,215.5432,105.1822,254.928,0.00054665,8.426e-05,0.0,0 STARLINK-4618,1 53735U 22107AM  23052.76787494  .00008426  00000-0  54665-3 0  9998,2 53735  53.2159 215.5432 0000991 105.1822 254.9280 15.08854807 26587,6917.835,95.437,540.386,539.015,0.0
53735.0,STARLINK-4618,PAYLOAD,2023-02-22 10:19:35,15.08845261,0.0001222,53.2165,212.5739,82.8976,277.2155,0.00019331,2.79e-05,0.0,0 STARLINK-4618,1 53735U 22107AM  23053.43027758  .00002790  00000-0  19331-3 0  9992,2 53735  53.2165 212.5739 0001222  82.8976 277.2155 15.08845261 26055,6917.864,95.437,540.575,538.884,0.0
